GLOBALSTAR M035         
1 25851U 99037A   25113.66993778 -.00000036  00000+0  10354-2 0  9990
2 25851  51.9925 176.5453 0014006 251.6165 281.2963 11.04538195 90234
GLOBALSTAR M032         
1 25852U 99037B   25113.93400816 -.00000133  00000+0 -21196-2 0  9992
2 25852  52.0001   4.8942 0012694  75.9707 284.2503 11.19061837128772
GLOBALSTAR M051         
1 25853U 99037C   25113.62182642 -.00000077  00000+0 -11973-3 0  9993
2 25853  51.9773 172.5254 0000950 137.7951 222.2932 11.42204670126154
GLOBALSTAR M030         
1 25854U 99037D   25114.77878116 -.00000034  00000+0  87492-3 0  9990
2 25854  51.9908 339.2370 0003076 324.9170  35.1444 11.55105733143973
GLOBALSTAR M048         
1 25872U 99041A   25113.74984663 -.00000054  00000+0  43521-3 0  9993
2 25872  51.9341 105.1421 0013110  90.3915  80.0831 11.33856365118805
GLOBALSTAR M026         
1 25873U 99041B   25113.77018566  .00000041  00000+0  38562-2 0  9990
2 25873  52.0018 294.8546 0002164 153.7573 219.2019 11.06837710142460
GLOBALSTAR M043         
1 25874U 99041C   25113.77370757 -.00000077  00000+0 -26256-3 0  9993
2 25874  51.9392 210.5651 0013744 217.2538 317.7476 11.25692114116740
